[{"CarID":"EAA-902,EAA-903,EAL-0907,EAL-0909,","StopName":"","RouteID":50,"NameEn":"50 Wufu Main Line","isOpenData":"Y","DepartureEn":"Gushan Ferry Pier Station","DestinationEn":"Jianjun Station (MRT Weiwuying Station)"},{"CarID":"089-XH,099-XH,","StopName":"","RouteID":99,"NameEn":"NO.99","isOpenData":"Y","DepartureEn":"Cihde Temple","DestinationEn":"Former Banana Warehouse"},{"CarID":"057-FT,060-FT,129-FT,200-FV,EAL-0928,","StopName":"","RouteID":219,"NameEn":"219 A","isOpenData":"Y","DepartureEn":"Jiachang Station","DestinationEn":"Dajhih Rd. (Guangrong Elementary School)"},{"CarID":"529-FP,911-V2,","StopName":"","RouteID":248,"NameEn":"248","isOpenData":"Y","DepartureEn":"Binhai 2nd Rd.","DestinationEn":"Jianjun Station (MRT Weiwuying Station)"},{"CarID":"193-FV,532-FP,","StopName":"","RouteID":852,"NameEn":"Red 52","isOpenData":"Y","DepartureEn":"National Sun Yat-sen University","DestinationEn":"TRA New Zuoying Station"},{"CarID":"107-V3,","StopName":"","RouteID":901,"NameEn":"Orange 1 A","isOpenData":"Y","DepartureEn":"Administration Square","DestinationEn":"MRT Sizihwan Station Exit 1"},{"CarID":"667-FP,672-FP,","StopName":"","RouteID":2482,"NameEn":"248(Interval)","isOpenData":"Y","DepartureEn":"Binhai 2nd Rd.","DestinationEn":"Kaohsiung Train Station (MRT Kaohsiung Main Station)"},{"CarID":"252-FN,","StopName":"","RouteID":9012,"NameEn":"Orange 1 C","isOpenData":"Y","DepartureEn":"College of Liberal Arts","DestinationEn":"MRT Sizihwan Station Exit 2"}]